<?xml version="1.0" encoding="UTF-8"?>
<ndm xmlns:xsi="http://www.w3.org/2001/XMLSchema-instance" xsi:noNamespaceSchemaLocation="https://sanaregistry.org/r/ndmxml_unqualified/ndmxml-2.0.0-master-2.0.xsd">
<omm id="CCSDS_OMM_VERS" version="2.0">
<header><CREATION_DATE/><ORIGINATOR/></header><body><segment><metadata><OBJECT_NAME>KUIPER-00152</OBJECT_NAME><OBJECT_ID>2025-217L</OBJECT_ID><CENTER_NAME>EARTH</CENTER_NAME><REF_FRAME>TEME</REF_FRAME><TIME_SYSTEM>UTC</TIME_SYSTEM><MEAN_ELEMENT_THEORY>SGP4</MEAN_ELEMENT_THEORY></metadata><data><meanElements><EPOCH>2025-11-15T19:04:03.521280</EPOCH><MEAN_MOTION>15.38201408</MEAN_MOTION><ECCENTRICITY>.0002472</ECCENTRICITY><INCLINATION>51.8723</INCLINATION><RA_OF_ASC_NODE>194.4080</RA_OF_ASC_NODE><ARG_OF_PERICENTER>182.5262</ARG_OF_PERICENTER><MEAN_ANOMALY>177.5713</MEAN_ANOMALY></meanElements><tleParameters><EPHEMERIS_TYPE>0</EPHEMERIS_TYPE><CLASSIFICATION_TYPE>U</CLASSIFICATION_TYPE><NORAD_CAT_ID>65772</NORAD_CAT_ID><ELEMENT_SET_NO>999</ELEMENT_SET_NO><REV_AT_EPOCH>790</REV_AT_EPOCH><BSTAR>.19302E-2</BSTAR><MEAN_MOTION_DOT>.74106E-3</MEAN_MOTION_DOT><MEAN_MOTION_DDOT>0</MEAN_MOTION_DDOT></tleParameters></data></segment></body></omm>
<omm id="CCSDS_OMM_VERS" version="2.0">
<header><CREATION_DATE/><ORIGINATOR/></header><body><segment><metadata><OBJECT_NAME>KUIPER-00153</OBJECT_NAME><OBJECT_ID>2025-217M</OBJECT_ID><CENTER_NAME>EARTH</CENTER_NAME><REF_FRAME>TEME</REF_FRAME><TIME_SYSTEM>UTC</TIME_SYSTEM><MEAN_ELEMENT_THEORY>SGP4</MEAN_ELEMENT_THEORY></metadata><data><meanElements><EPOCH>2025-11-15T20:00:01.999008</EPOCH><MEAN_MOTION>15.14447134</MEAN_MOTION><ECCENTRICITY>.0011285</ECCENTRICITY><INCLINATION>51.8761</INCLINATION><RA_OF_ASC_NODE>197.0641</RA_OF_ASC_NODE><ARG_OF_PERICENTER>282.0505</ARG_OF_PERICENTER><MEAN_ANOMALY>4.4031</MEAN_ANOMALY></meanElements><tleParameters><EPHEMERIS_TYPE>0</EPHEMERIS_TYPE><CLASSIFICATION_TYPE>U</CLASSIFICATION_TYPE><NORAD_CAT_ID>65773</NORAD_CAT_ID><ELEMENT_SET_NO>999</ELEMENT_SET_NO><REV_AT_EPOCH>366</REV_AT_EPOCH><BSTAR>-.51342E-1</BSTAR><MEAN_MOTION_DOT>-.889473E-2</MEAN_MOTION_DOT><MEAN_MOTION_DDOT>0</MEAN_MOTION_DDOT></tleParameters></data></segment></body></omm>
<omm id="CCSDS_OMM_VERS" version="2.0">
<header><CREATION_DATE/><ORIGINATOR/></header><body><segment><metadata><OBJECT_NAME>KUIPER-00155</OBJECT_NAME><OBJECT_ID>2025-217N</OBJECT_ID><CENTER_NAME>EARTH</CENTER_NAME><REF_FRAME>TEME</REF_FRAME><TIME_SYSTEM>UTC</TIME_SYSTEM><MEAN_ELEMENT_THEORY>SGP4</MEAN_ELEMENT_THEORY></metadata><data><meanElements><EPOCH>2025-11-15T09:22:56.997408</EPOCH><MEAN_MOTION>15.36455054</MEAN_MOTION><ECCENTRICITY>.0005386</ECCENTRICITY><INCLINATION>51.8656</INCLINATION><RA_OF_ASC_NODE>196.9218</RA_OF_ASC_NODE><ARG_OF_PERICENTER>263.7563</ARG_OF_PERICENTER><MEAN_ANOMALY>96.2809</MEAN_ANOMALY></meanElements><tleParameters><EPHEMERIS_TYPE>0</EPHEMERIS_TYPE><CLASSIFICATION_TYPE>U</CLASSIFICATION_TYPE><NORAD_CAT_ID>65774</NORAD_CAT_ID><ELEMENT_SET_NO>999</ELEMENT_SET_NO><REV_AT_EPOCH>783</REV_AT_EPOCH><BSTAR>.10182E-2</BSTAR><MEAN_MOTION_DOT>.36579E-3</MEAN_MOTION_DOT><MEAN_MOTION_DDOT>0</MEAN_MOTION_DDOT></tleParameters></data></segment></body></omm>
<omm id="CCSDS_OMM_VERS" version="2.0">
<header><CREATION_DATE/><ORIGINATOR/></header><body><segment><metadata><OBJECT_NAME>KUIPER-00156</OBJECT_NAME><OBJECT_ID>2025-217P</OBJECT_ID><CENTER_NAME>EARTH</CENTER_NAME><REF_FRAME>TEME</REF_FRAME><TIME_SYSTEM>UTC</TIME_SYSTEM><MEAN_ELEMENT_THEORY>SGP4</MEAN_ELEMENT_THEORY></metadata><data><meanElements><EPOCH>2025-11-15T16:07:47.811360</EPOCH><MEAN_MOTION>15.38096330</MEAN_MOTION><ECCENTRICITY>.0002844</ECCENTRICITY><INCLINATION>51.8723</INCLINATION><RA_OF_ASC_NODE>195.0867</RA_OF_ASC_NODE><ARG_OF_PERICENTER>197.1145</ARG_OF_PERICENTER><MEAN_ANOMALY>162.9746</MEAN_ANOMALY></meanElements><tleParameters><EPHEMERIS_TYPE>0</EPHEMERIS_TYPE><CLASSIFICATION_TYPE>U</CLASSIFICATION_TYPE><NORAD_CAT_ID>65775</NORAD_CAT_ID><ELEMENT_SET_NO>999</ELEMENT_SET_NO><REV_AT_EPOCH>788</REV_AT_EPOCH><BSTAR>.14939E-2</BSTAR><MEAN_MOTION_DOT>.56943E-3</MEAN_MOTION_DOT><MEAN_MOTION_DDOT>0</MEAN_MOTION_DDOT></tleParameters></data></segment></body></omm>
<omm id="CCSDS_OMM_VERS" version="2.0">
<header><CREATION_DATE/><ORIGINATOR/></header><body><segment><metadata><OBJECT_NAME>KUIPER-00166</OBJECT_NAME><OBJECT_ID>2025-217T</OBJECT_ID><CENTER_NAME>EARTH</CENTER_NAME><REF_FRAME>TEME</REF_FRAME><TIME_SYSTEM>UTC</TIME_SYSTEM><MEAN_ELEMENT_THEORY>SGP4</MEAN_ELEMENT_THEORY></metadata><data><meanElements><EPOCH>2025-11-15T16:21:38.586240</EPOCH><MEAN_MOTION>15.37690171</MEAN_MOTION><ECCENTRICITY>.0003133</ECCENTRICITY><INCLINATION>51.8709</INCLINATION><RA_OF_ASC_NODE>195.1501</RA_OF_ASC_NODE><ARG_OF_PERICENTER>187.2703</ARG_OF_PERICENTER><MEAN_ANOMALY>172.8239</MEAN_ANOMALY></meanElements><tleParameters><EPHEMERIS_TYPE>0</EPHEMERIS_TYPE><CLASSIFICATION_TYPE>U</CLASSIFICATION_TYPE><NORAD_CAT_ID>65779</NORAD_CAT_ID><ELEMENT_SET_NO>999</ELEMENT_SET_NO><REV_AT_EPOCH>788</REV_AT_EPOCH><BSTAR>.12759E-2</BSTAR><MEAN_MOTION_DOT>.47876E-3</MEAN_MOTION_DOT><MEAN_MOTION_DDOT>0</MEAN_MOTION_DDOT></tleParameters></data></segment></body></omm>

</ndm>
