KUIPER-00152            
1 65772U 25217L   25319.79448520  .00074106  00000+0  19302-2 0  9997
2 65772  51.8723 194.4080 0002472 182.5262 177.5713 15.38201408  7901
KUIPER-00153            
1 65773U 25217M   25319.83335647 -.00889473  00000+0 -51342-1 0  9990
2 65773  51.8761 197.0641 0011285 282.0505   4.4031 15.14447134  3666
KUIPER-00155            
1 65774U 25217N   25319.39093747  .00036579  00000+0  10182-2 0  9991
2 65774  51.8656 196.9218 0005386 263.7563  96.2809 15.36455054  7832
KUIPER-00156            
1 65775U 25217P   25319.67208115  .00056943  00000+0  14939-2 0  9991
2 65775  51.8723 195.0867 0002844 197.1145 162.9746 15.38096330  7886
KUIPER-00166            
1 65779U 25217T   25319.68169660  .00047876  00000+0  12759-2 0  9990
2 65779  51.8709 195.1501 0003133 187.2703 172.8239 15.37690171  7881
